NORAD_CAT_ID,OBJECT_NAME,OBJECT_TYPE,EPOCH,MEAN_MOTION,ECCENTRICITY,INCLINATION,RA_OF_ASC_NODE,ARG_OF_PERICENTER,MEAN_ANOMALY,BSTAR,MEAN_MOTION_DOT,MEAN_MOTION_DDOT,TLE_LINE0,TLE_LINE1,TLE_LINE2,SEMIMAJOR_AXIS,PERIOD,APOGEE,PERIGEE,DECAYED
49150.0,STARLINK-3104,PAYLOAD,2024-06-27 19:50:33,14.98325062,0.000287,70.0004,57.3492,267.0194,93.0637,5.3123e-05,5.41e-06,0.0,0 STARLINK-3104,1 49150U 21082W   24179.82677308  .00000541  00000-0  53123-4 0  9994,2 49150  70.0004  57.3492 0002870 267.0194  93.0637 14.98325062154332,6950.208,96.107,574.068,570.078,0.0
49150.0,STARLINK-3104,PAYLOAD,2024-06-27 21:26:41,14.98325384,0.0002855,70.0004,57.1809,266.8919,93.1913,5.6771e-05,5.84e-06,0.0,0 STARLINK-3104,1 49150U 21082W   24179.89353305  .00000584  00000-0  56771-4 0  9998,2 49150  70.0004  57.1809 0002855 266.8919  93.1913 14.98325384154332,6950.207,96.107,574.056,570.088,0.0
49150.0,STARLINK-3104,PAYLOAD,2024-06-28 08:39:37,14.98329012,0.0002761,70.0005,56.0021,267.8063,92.278,0.00010233,1.128e-05,0.0,0 STARLINK-3104,1 49150U 21082W   24180.36085051  .00001128  00000-0  10233-3 0  9999,2 49150  70.0005  56.0021 0002761 267.8063  92.2780 14.98329012154406,6950.196,96.107,573.98,570.142,0.0
49150.0,STARLINK-3104,PAYLOAD,2024-06-28 19:52:33,14.9833426,0.0002834,70.0001,54.8227,269.2719,90.8115,0.00012063,1.347e-05,0.0,0 STARLINK-3104,1 49150U 21082W   24180.82816675  .00001347  00000-0  12063-3 0  9990,2 49150  70.0001  54.8227 0002834 269.2719  90.8115 14.98334260154486,6950.18,96.107,574.014,570.075,0.0
49150.0,STARLINK-3104,PAYLOAD,2024-06-28 21:28:41,14.98334557,0.0002832,70.0001,54.6544,269.2955,90.7879,0.0001224,1.368e-05,0.0,0 STARLINK-3104,1 49150U 21082W   24180.89492642  .00001368  00000-0  12240-3 0  9991,2 49150  70.0001  54.6544 0002832 269.2955  90.7879 14.98334557154481,6950.179,96.107,574.012,570.076,0.0
49150.0,STARLINK-3104,PAYLOAD,2024-06-29 02:17:05,14.98342331,0.0002719,70.0003,54.1501,266.0577,94.0272,0.00020304,2.331e-05,0.0,0 STARLINK-3104,1 49150U 21082W   24181.09519852  .00002331  00000-0  20304-3 0  9998,2 49150  70.0003  54.1501 0002719 266.0577  94.0272 14.98342331154528,6950.155,96.106,573.91,570.13,0.0
49150.0,STARLINK-3104,PAYLOAD,2024-06-29 15:06:11,14.98319577,0.0002969,70.0001,52.8036,271.988,88.0939,-0.00010987,-1.403e-05,0.0,0 STARLINK-3104,1 49150U 21082W   24181.62930270 -.00001403  00000-0 -10987-3 0  9995,2 49150  70.0001  52.8036 0002969 271.9880  88.0939 14.98319577154599,6950.225,96.108,574.154,570.027,0.0
49150.0,STARLINK-3104,PAYLOAD,2024-06-29 19:54:36,14.98317269,0.0002801,70.0,52.2991,264.5555,95.5284,-0.00014131,-1.778e-05,0.0,0 STARLINK-3104,1 49150U 21082W   24181.82958605 -.00001778  00000-0 -14131-3 0  9999,2 49150  70.0000  52.2991 0002801 264.5555  95.5284 14.98317269154631,6950.232,96.108,574.044,570.151,0.0
49150.0,STARLINK-3104,PAYLOAD,2024-06-29 23:06:52,14.98316619,0.0002901,69.9999,51.9615,270.8965,89.1862,-0.00012934,-1.635e-05,0.0,0 STARLINK-3104,1 49150U 21082W   24181.96310757 -.00001635  00000-0 -12934-3 0  9995,2 49150  69.9999  51.9615 0002901 270.8965  89.1862 14.98316619154640,6950.234,96.108,574.116,570.083,0.0
49150.0,STARLINK-3104,PAYLOAD,2024-06-30 08:43:40,14.98324622,0.0003012,69.9997,50.9506,273.0991,86.9824,-5.9329e-05,-8.01e-06,0.0,0 STARLINK-3104,1 49150U 21082W   24182.36366317 -.00000801  00000-0 -59329-4 0  9997,2 49150  69.9997  50.9506 0003012 273.0991  86.9824 14.98324622154718,6950.21,96.107,574.168,569.981,0.0
49150.0,STARLINK-3104,PAYLOAD,2024-06-30 21:32:44,14.98334685,0.0003398,69.9992,49.6032,273.3212,86.7558,6.9971e-05,7.42e-06,0.0,0 STARLINK-3104,1 49150U 21082W   24182.89773522  .00000742  00000-0  69971-4 0  9991,2 49150  69.9992  49.6032 0003398 273.3212  86.7558 14.98334685154798,6950.178,96.107,574.405,569.682,0.0
49150.0,STARLINK-3104,PAYLOAD,2024-07-01 15:10:13,14.98331062,0.0003083,70.0013,47.7531,273.491,86.5896,0.00045432,5.332e-05,0.0,0 STARLINK-3104,1 49150U 21082W   24183.63209967  .00005332  00000-0  45432-3 0  9996,2 49150  70.0013  47.7531 0003083 273.4910  86.5896 14.98331062154895,6950.19,96.107,574.197,569.912,0.0
49150.0,STARLINK-3104,PAYLOAD,2024-07-01 21:34:45,14.98344615,0.0003077,70.0018,47.0793,271.8526,88.2281,0.00068169,8.053e-05,0.0,0 STARLINK-3104,1 49150U 21082W   24183.89913607  .00008053  00000-0  68169-3 0  9992,2 49150  70.0018  47.0793 0003077 271.8526  88.2281 14.98344615154931,6950.148,96.106,574.151,569.874,0.0
49150.0,STARLINK-3104,PAYLOAD,2024-07-02 00:47:01,14.98351824,0.0003119,70.0021,46.7426,271.627,88.4531,0.00073556,8.699e-05,0.0,0 STARLINK-3104,1 49150U 21082W   24184.03265309  .00008699  00000-0  73556-3 0  9990,2 49150  70.0021  46.7426 0003119 271.6270  88.4531 14.98351824154968,6950.125,96.106,574.158,569.823,0.0
49150.0,STARLINK-3104,PAYLOAD,2024-07-02 08:47:41,14.98341156,0.0003025,70.0023,45.9008,271.7431,88.3382,0.00014064,1.586e-05,0.0,0 STARLINK-3104,1 49150U 21082W   24184.36645274  .00001586  00000-0  14064-3 0  9996,2 49150  70.0023  45.9008 0003025 271.7431  88.3382 14.98341156155010,6950.158,96.106,574.126,569.921,0.0
49150.0,STARLINK-3104,PAYLOAD,2024-07-02 13:36:05,14.98335518,0.0002968,70.0023,45.3961,272.1152,87.9667,1.5014e-05,8.6e-07,0.0,0 STARLINK-3104,1 49150U 21082W   24184.56673412  .00000086  00000-0  15014-4 0  9994,2 49150  70.0023  45.3961 0002968 272.1152  87.9667 14.98335518155030,6950.176,96.107,574.104,569.978,0.0
49150.0,STARLINK-3104,PAYLOAD,2024-07-02 20:00:38,14.98334059,0.0002943,70.0016,44.7228,271.793,88.2892,5.8127e-05,6.01e-06,0.0,0 STARLINK-3104,1 49150U 21082W   24184.83377533  .00000601  00000-0  58127-4 0  9994,2 49150  70.0016  44.7228 0002943 271.7930  88.2892 14.98334059155081,6950.18,96.107,574.091,570.0,0.0
49150.0,STARLINK-3104,PAYLOAD,2024-07-02 21:36:46,14.98336164,0.0002927,70.0016,44.5544,271.6223,88.4601,5.178e-05,5.25e-06,0.0,0 STARLINK-3104,1 49150U 21082W   24184.90053379  .00000525  00000-0  51780-4 0  9994,2 49150  70.0016  44.5544 0002927 271.6223  88.4601 14.98336164155085,6950.174,96.107,574.073,570.005,0.0
49150.0,STARLINK-3104,PAYLOAD,2024-07-03 20:02:38,14.9833749,0.0002755,70.0004,42.1976,272.5245,87.5598,-6.6533e-05,-8.87e-06,0.0,0 STARLINK-3104,1 49150U 21082W   24185.83517344 -.00000887  00000-0 -66533-4 0  9999,2 49150  70.0004  42.1976 0002755 272.5245  87.5598 14.98337490155233,6950.17,96.107,573.95,570.12,0.0
49150.0,STARLINK-3104,PAYLOAD,2024-07-03 21:38:47,14.98307701,0.0002791,70.0004,42.0293,273.6314,86.4526,0.00052054,6.12e-05,0.0,0 STARLINK-3104,1 49150U 21082W   24185.90194159  .00006120  00000-0  52054-3 0  9998,2 49150  70.0004  42.0293 0002791 273.6314  86.4526 14.98307701155234,6950.262,96.108,574.067,570.187,0.0
49150.0,STARLINK-3104,PAYLOAD,2024-07-04 07:15:35,14.98341603,0.0002847,70.0003,41.0191,270.7847,89.2986,-0.00015046,-1.888e-05,0.0,0 STARLINK-3104,1 49150U 21082W   24186.30248988 -.00001888  00000-0 -15046-3 0  9991,2 49150  70.0003  41.0191 0002847 270.7847  89.2986 14.98341603155296,6950.157,96.106,574.001,570.043,0.0
49150.0,STARLINK-3104,PAYLOAD,2024-07-04 20:04:39,14.98331326,0.0002807,70.0002,39.6724,270.1792,89.9045,5.5518e-05,5.7e-06,0.0,0 STARLINK-3104,1 49150U 21082W   24186.83657241  .00000570  00000-0  55518-4 0  9999,2 49150  70.0002  39.6724 0002807 270.1792  89.9045 14.98331326155383,6950.189,96.107,574.005,570.103,0.0
49150.0,STARLINK-3104,PAYLOAD,2024-07-04 21:40:47,14.98331513,0.0002774,70.0002,39.5041,269.7154,90.3688,6.7214e-05,7.09e-06,0.0,0 STARLINK-3104,1 49150U 21082W   24186.90333196  .00000709  00000-0  67214-4 0  9997,2 49150  70.0002  39.5041 0002774 269.7154  90.3688 14.98331513155380,6950.188,96.107,573.981,570.125,0.0
49150.0,STARLINK-3104,PAYLOAD,2024-07-05 07:17:36,14.98332893,0.0002754,70.0004,38.494,270.1467,89.9376,5.6209e-05,5.78e-06,0.0,0 STARLINK-3104,1 49150U 21082W   24187.30389074  .00000578  00000-0  56209-4 0  9994,2 49150  70.0004  38.4940 0002754 270.1467  89.9376 14.98332893155446,6950.184,96.107,573.963,570.135,0.0
49150.0,STARLINK-3104,PAYLOAD,2024-07-05 20:06:40,14.98330861,0.00029,70.0,37.1484,265.9932,94.0896,3.1301e-05,2.81e-06,0.0,0 STARLINK-3104,1 49150U 21082W   24187.83797191  .00000281  00000-0  31301-4 0  9992,2 49150  70.0000  37.1484 0002900 265.9932  94.0896 14.98330861155530,6950.19,96.107,574.071,570.04,0.0
49150.0,STARLINK-3104,PAYLOAD,2024-07-05 21:42:48,14.98330864,0.00029,70.0,36.9801,266.0137,94.069,2.9749e-05,2.62e-06,0.0,0 STARLINK-3104,1 49150U 21082W   24187.90473187  .00000262  00000-0  29749-4 0  9998,2 49150  70.0000  36.9801 0002900 266.0137  94.0690 14.98330864155534,6950.19,96.107,574.071,570.04,0.0
49150.0,STARLINK-3104,PAYLOAD,2024-07-06 13:44:09,14.98326903,0.0003,69.9999,35.2964,269.7567,90.3248,8.5314e-06,9e-08,0.0,0 STARLINK-3104,1 49150U 21082W   24188.57233398  .00000009  00000-0  85314-5 0  9990,2 49150  69.9999  35.2964 0003000 269.7567  90.3248 14.98326903155637,6950.202,96.107,574.153,569.982,0.0
49150.0,STARLINK-3104,PAYLOAD,2024-07-06 20:08:41,14.98328229,0.0002889,70.0005,34.6235,266.4122,93.6706,4.5096e-05,4.45e-06,0.0,0 STARLINK-3104,1 49150U 21082W   24188.83937255  .00000445  00000-0  45096-4 0  9998,2 49150  70.0005  34.6235 0002889 266.4122  93.6706 14.98328229155680,6950.198,96.107,574.071,570.055,0.0
49150.0,STARLINK-3104,PAYLOAD,2024-07-06 21:44:49,14.98328421,0.0002879,70.0005,34.4551,265.8943,94.1886,4.4664e-05,4.4e-06,0.0,0 STARLINK-3104,1 49150U 21082W   24188.90613245  .00000440  00000-0  44664-4 0  9991,2 49150  70.0005  34.4551 0002879 265.8943  94.1886 14.98328421155681,6950.198,96.107,574.064,570.062,0.0
49150.0,STARLINK-3104,PAYLOAD,2024-07-07 07:21:38,14.98332447,0.000305,70.0001,33.4438,268.1744,91.9065,-9.0145e-06,-2.01e-06,0.0,0 STARLINK-3104,1 49150U 21082W   24189.30669042 -.00000201  00000-0 -90145-5 0  9995,2 49150  70.0001  33.4438 0003050 268.1744  91.9065 14.98332447155741,6950.185,96.107,574.17,569.931,0.0
